CTC1_L_00014001-01
1 28104U 26901VU  26070.40831019  .00000000  00000+0  00000-0 0  9993
2 28104  40.0000   0.0000 0000000   0.0000   0.0000 15.80155680    11
CTC1_L_00014001-02
1 28105U 26186FE  26070.40831019  .00000000  00000+0  00000-0 0  9999
2 28105  40.0000   0.0000 0000000   0.0000  90.0000 15.80155680    11
CTC1_L_00014001-03
1 28106U 23664JU  26070.40831019  .00000000  00000+0  00000-0 0  9998
2 28106  40.0000   0.0000 0000000   0.0000 180.0000 15.80155680    12
CTC1_L_00014001-04
1 28107U 26169PD  26070.40831019  .00000000  00000+0  00000-0 0  9992
2 28107  40.0000   0.0000 0000000   0.0000 270.0000 15.80155680    13
CTC1_L_00014002-01
1 28108U 25414U   26070.40831019  .00000000  00000+0  00000-0 0  9995
2 28108  40.0000  12.0000 0000000   0.0000  12.0000 15.80155680    11
CTC1_L_00014002-02
1 28109U 24462XI  26070.40831019  .00000000  00000+0  00000-0 0  9998
2 28109  40.0000  12.0000 0000000   0.0000 102.0000 15.80155680    12
CTC1_L_00014002-03
1 28110U 25540ZI  26070.40831019  .00000000  00000+0  00000-0 0  9998
2 28110  40.0000  12.0000 0000000   0.0000 192.0000 15.80155680    13
CTC1_L_00014002-04
1 28111U 22424EN  26070.40831019  .00000000  00000+0  00000-0 0  9997
2 28111  40.0000  12.0000 0000000   0.0000 282.0000 15.80155680    14
CTC1_L_00014003-01
1 28112U 23125CU  26070.40831019  .00000000  00000+0  00000-0 0  9997
2 28112  40.0000  24.0000 0000000   0.0000  24.0000 15.80155680    12
CTC1_L_00014003-02
1 28113U 22419OE  26070.40831019  .00000000  00000+0  00000-0 0  9993
2 28113  40.0000  24.0000 0000000   0.0000 114.0000 15.80155680    13
CTC1_L_00014003-03
1 28114U 24635DA  26070.40831019  .00000000  00000+0  00000-0 0  9996
2 28114  40.0000  24.0000 0000000   0.0000 204.0000 15.80155680    14
CTC1_L_00014003-04
1 28115U 25515UK  26070.40831019  .00000000  00000+0  00000-0 0  9995
2 28115  40.0000  24.0000 0000000   0.0000 294.0000 15.80155680    14
CTC1_L_00014004-01
1 28116U 24178TS  26070.40831019  .00000000  00000+0  00000-0 0  9990
2 28116  40.0000  36.0000 0000000   0.0000  36.0000 15.80155680    12
CTC1_L_00014004-02
1 28117U 23174YU  26070.40831019  .00000000  00000+0  00000-0 0  9996
2 28117  40.0000  36.0000 0000000   0.0000 126.0000 15.80155680    13
CTC1_L_00014004-03
1 28118U 24215NH  26070.40831019  .00000000  00000+0  00000-0 0  9994
2 28118  40.0000  36.0000 0000000   0.0000 216.0000 15.80155680    14
CTC1_L_00014004-04
1 28119U 25918AD  26070.40831019  .00000000  00000+0  00000-0 0  9996
2 28119  40.0000  36.0000 0000000   0.0000 306.0000 15.80155680    15
CTC1_L_00014005-01
1 28120U 22102WE  26070.40831019  .00000000  00000+0  00000-0 0  9990
2 28120  40.0000  48.0000 0000000   0.0000  48.0000 15.80155680    13
CTC1_L_00014005-02
1 28121U 24157ZR  26070.40831019  .00000000  00000+0  00000-0 0  9993
2 28121  40.0000  48.0000 0000000   0.0000 138.0000 15.80155680    14
CTC1_L_00014005-03
1 28122U 22719JX  26070.40831019  .00000000  00000+0  00000-0 0  9996
2 28122  40.0000  48.0000 0000000   0.0000 228.0000 15.80155680    15
CTC1_L_00014005-04
1 28123U 25102QM  26070.40831019  .00000000  00000+0  00000-0 0  9996
2 28123  40.0000  48.0000 0000000   0.0000 318.0000 15.80155680    16
CTC1_L_00014006-01
1 28124U 23432BT  26070.40831019  .00000000  00000+0  00000-0 0  9991
2 28124  40.0000  60.0000 0000000   0.0000  60.0000 15.80155680    15
CTC1_L_00014006-02
1 28125U 26737NF  26070.40831019  .00000000  00000+0  00000-0 0  9993
2 28125  40.0000  60.0000 0000000   0.0000 150.0000 15.80155680    16
CTC1_L_00014006-03
1 28126U 24014OX  26070.40831019  .00000000  00000+0  00000-0 0  9990
2 28126  40.0000  60.0000 0000000   0.0000 240.0000 15.80155680    17
CTC1_L_00014006-04
1 28127U 26348ZQ  26070.40831019  .00000000  00000+0  00000-0 0  9993
2 28127  40.0000  60.0000 0000000   0.0000 330.0000 15.80155680    18
CTC1_L_00014007-01
1 28128U 23736YM  26070.40831019  .00000000  00000+0  00000-0 0  9992
2 28128  40.0000  72.0000 0000000   0.0000  72.0000 15.80155680    15
CTC1_L_00014007-02
1 28129U 25212BN  26070.40831019  .00000000  00000+0  00000-0 0  9994
2 28129  40.0000  72.0000 0000000   0.0000 162.0000 15.80155680    16
CTC1_L_00014007-03
1 28130U 24833RZ  26070.40831019  .00000000  00000+0  00000-0 0  9994
2 28130  40.0000  72.0000 0000000   0.0000 252.0000 15.80155680    18
CTC1_L_00014007-04
1 28131U 26104MY  26070.40831019  .00000000  00000+0  00000-0 0  9998
2 28131  40.0000  72.0000 0000000   0.0000 342.0000 15.80155680    19
CTC1_L_00014008-01
1 28132U 22698XK  26070.40831019  .00000000  00000+0  00000-0 0  9993
2 28132  40.0000  84.0000 0000000   0.0000  84.0000 15.80155680    16
CTC1_L_00014008-02
1 28133U 25990UH  26070.40831019  .00000000  00000+0  00000-0 0  9992
2 28133  40.0000  84.0000 0000000   0.0000 174.0000 15.80155680    17
CTC1_L_00014008-03
1 28134U 23696OP  26070.40831019  .00000000  00000+0  00000-0 0  9994
2 28134  40.0000  84.0000 0000000   0.0000 264.0000 15.80155680    18
CTC1_L_00014008-04
1 28135U 22728SO  26070.40831019  .00000000  00000+0  00000-0 0  9990
2 28135  40.0000  84.0000 0000000   0.0000 354.0000 15.80155680    19
CTC1_L_00014009-01
1 28136U 24153IP  26070.40831019  .00000000  00000+0  00000-0 0  9995
2 28136  40.0000  96.0000 0000000   0.0000  96.0000 15.80155680    16
CTC1_L_00014009-02
1 28137U 25649VX  26070.40831019  .00000000  00000+0  00000-0 0  9997
2 28137  40.0000  96.0000 0000000   0.0000 186.0000 15.80155680    17
CTC1_L_00014009-03
1 28138U 22582BE  26070.40831019  .00000000  00000+0  00000-0 0  9991
2 28138  40.0000  96.0000 0000000   0.0000 276.0000 15.80155680    18
CTC1_L_00014009-04
1 28139U 26237KR  26070.40831019  .00000000  00000+0  00000-0 0  9993
2 28139  40.0000  96.0000 0000000   0.0000   6.0000 15.80155680    10
CTC1_L_00014010-01
1 28140U 25215HY  26070.40831019  .00000000  00000+0  00000-0 0  9990
2 28140  40.0000 108.0000 0000000   0.0000 108.0000 15.80155680    19
CTC1_L_00014010-02
1 28141U 26528O   26070.40831019  .00000000  00000+0  00000-0 0  9999
2 28141  40.0000 108.0000 0000000   0.0000 198.0000 15.80155680    19
CTC1_L_00014010-03
1 28142U 25604UT  26070.40831019  .00000000  00000+0  00000-0 0  9994
2 28142  40.0000 108.0000 0000000   0.0000 288.0000 15.80155680    10
CTC1_L_00014010-04
1 28143U 25907JI  26070.40831019  .00000000  00000+0  00000-0 0  9991
2 28143  40.0000 108.0000 0000000   0.0000  18.0000 15.80155680    12
CTC1_L_00014011-01
1 28144U 24730WU  26070.40831019  .00000000  00000+0  00000-0 0  9995
2 28144  40.0000 120.0000 0000000   0.0000 120.0000 15.80155680    11
CTC1_L_00014011-02
1 28145U 22035BQ  26070.40831019  .00000000  00000+0  00000-0 0  9992
2 28145  40.0000 120.0000 0000000   0.0000 210.0000 15.80155680    12
CTC1_L_00014011-03
1 28146U 25144OG  26070.40831019  .00000000  00000+0  00000-0 0  9997
2 28146  40.0000 120.0000 0000000   0.0000 300.0000 15.80155680    13
CTC1_L_00014011-04
1 28147U 26531OX  26070.40831019  .00000000  00000+0  00000-0 0  9999
2 28147  40.0000 120.0000 0000000   0.0000  30.0000 15.80155680    14
CTC1_L_00014012-01
1 28148U 25237SJ  26070.40831019  .00000000  00000+0  00000-0 0  9992
2 28148  40.0000 132.0000 0000000   0.0000 132.0000 15.80155680    11
CTC1_L_00014012-02
1 28149U 24590PZ  26070.40831019  .00000000  00000+0  00000-0 0  9994
2 28149  40.0000 132.0000 0000000   0.0000 222.0000 15.80155680    12
CTC1_L_00014012-03
1 28150U 26956E   26070.40831019  .00000000  00000+0  00000-0 0  9994
2 28150  40.0000 132.0000 0000000   0.0000 312.0000 15.80155680    14
CTC1_L_00014012-04
1 28151U 23525QS  26070.40831019  .00000000  00000+0  00000-0 0  9994
2 28151  40.0000 132.0000 0000000   0.0000  42.0000 15.80155680    15
CTC1_L_00014013-01
1 28152U 26697ZW  26070.40831019  .00000000  00000+0  00000-0 0  9998
2 28152  40.0000 144.0000 0000000   0.0000 144.0000 15.80155680    12
CTC1_L_00014013-02
1 28153U 24686LE  26070.40831019  .00000000  00000+0  00000-0 0  9995
2 28153  40.0000 144.0000 0000000   0.0000 234.0000 15.80155680    13
CTC1_L_00014013-03
1 28154U 26268RU  26070.40831019  .00000000  00000+0  00000-0 0  9994
2 28154  40.0000 144.0000 0000000   0.0000 324.0000 15.80155680    14
CTC1_L_00014013-04
1 28155U 25983YG  26070.40831019  .00000000  00000+0  00000-0 0  9998
2 28155  40.0000 144.0000 0000000   0.0000  54.0000 15.80155680    15
CTC1_L_00014014-01
1 28156U 22498L   26070.40831019  .00000000  00000+0  00000-0 0  9997
2 28156  40.0000 156.0000 0000000   0.0000 156.0000 15.80155680    12
CTC1_L_00014014-02
1 28157U 22182XJ  26070.40831019  .00000000  00000+0  00000-0 0  9998
2 28157  40.0000 156.0000 0000000   0.0000 246.0000 15.80155680    13
CTC1_L_00014014-03
1 28158U 24874ZI  26070.40831019  .00000000  00000+0  00000-0 0  9999
2 28158  40.0000 156.0000 0000000   0.0000 336.0000 15.80155680    14
CTC1_L_00014014-04
1 28159U 22967ZA  26070.40831019  .00000000  00000+0  00000-0 0  9991
2 28159  40.0000 156.0000 0000000   0.0000  66.0000 15.80155680    15
CTC1_L_00014015-01
1 28160U 23666GK  26070.40831019  .00000000  00000+0  00000-0 0  9990
2 28160  40.0000 168.0000 0000000   0.0000 168.0000 15.80155680    13
CTC1_L_00014015-02
1 28161U 22550E   26070.40831019  .00000000  00000+0  00000-0 0  9992
2 28161  40.0000 168.0000 0000000   0.0000 258.0000 15.80155680    14
CTC1_L_00014015-03
1 28162U 23593AG  26070.40831019  .00000000  00000+0  00000-0 0  9991
2 28162  40.0000 168.0000 0000000   0.0000 348.0000 15.80155680    15
CTC1_L_00014015-04
1 28163U 24334HE  26070.40831019  .00000000  00000+0  00000-0 0  9996
2 28163  40.0000 168.0000 0000000   0.0000  78.0000 15.80155680    16
CTC1_L_00014016-01
1 28164U 25751LQ  26070.40831019  .00000000  00000+0  00000-0 0  9991
2 28164  40.0000 180.0000 0000000   0.0000 180.0000 15.80155680    15
CTC1_L_00014016-02
1 28165U 23636WH  26070.40831019  .00000000  00000+0  00000-0 0  9992
2 28165  40.0000 180.0000 0000000   0.0000 270.0000 15.80155680    16
